{
"type": "FeatureCollection",
"name": "big_overflow",
"crs": { "type": "name", "properties": { "name": "urn:ogc:def:crs:EPSG::4269" } },
"xy_coordinate_resolution": 1e-10,
"features": [
{"type":"Feature","properties":{"ZONE":"R-1","LONGNOTE":"overflow padding overflow padding overflow padding overflow padding overflow padding overflow padding overflow padding overflow padding overflow padding overflow padding overflow padding overflow padding overflow padding overflow padding overflow padding overflow padding overflow padding overflow padding overflow padding overflow padding overflow padding overflow padding overflow padding overflow padding overflow padding overflow padding overflow padding overflow padding overflow padding overflow padding overflow padding overflow padding overflow padding overflow padding overflow padding overflow padding overflow padding overflow padding overflow padding overflow padding overflow padding overflow padding overflow padding overflow padding overflow padding overflow padding overflow padding overflow padding overflow padding overflow padding overflow padding overflow padding overflow padding overflow padding overflow padding overflow padding overflow padding overflow padding overflow padding overflow padding overflow padding overflow padding overflow padding overflow padding overflow padding overflow padding overflow padding overflow padding overflow padding overflow padding overflow padding overflow padding overflow padding overflow padding overflow padding overflow padding overflow padding overflow padding overflow padding overflow padding overflow padding overflow padding overflow padding overflow padding overflow padding overflow padding overflow padding overflow padding overflow padding overflow padding overflow padding overflow padding overflow padding overflow padding overflow padding overflow padding overflow padding overflow padding overflow padding overflow padding overflow padding overflow padding overflow padding overflow padding overflow padding overflow padding overflow padding overflow padding overflow padding overflow padding overflow padding overflow padding overflow padding overflow padding overflow padding overflow padding overflow padding overflow padding overflow padding overflow padding overflow padding overflow padding overflow padding overflow padding overflow padding overflow padding overflow padding overflow padding overflow padding overflow padding overflow padding overflow padding overflow padding overflow padding overflow padding overflow padding overflow padding overflow padding overflow padding overflow padding overflow padding overflow padding overflow padding overflow padding overflow padding overflow padding overflow padding overflow padding overflow padding overflow padding overflow padding overflow padding overflow padding overflow padding overflow padding overflow padding overflow padding overflow padding overflow padding overflow padding overflow padding overflow padding overflow padding overflow padding overflow padding overflow padding overflow padding overflow padding overflow padding overflow padding overflow padding overflow padding overflow padding overflow padding overflow padding overflow padding overflow padding overflow padding overflow padding overflow padding overflow padding overflow padding overflow padding overflow padding overflow padding overflow padding overflow padding overflow padding overflow padding overflow padding overflow padding overflow padding overflow padding overflow padding overflow padding overflow padding overflow padding overflow padding overflow padding overflow padding overflow padding overflow padding overflow padding overflow padding overflow padding overflow padding overflow padding overflow padding overflow padding overflow padding overflow padding overflow padding overflow padding overflow padding overflow padding overflow padding overflow padding overflow padding overflow padding overflow padding overflow padding overflow padding overflow padding overflow padding overflow padding overflow padding overflow padding overflow padding overflow padding overflow padding overflow padding overflow padding overflow padding overflow padding overflow padding overflow padding overflow padding overflow padding overflow padding overflow padding overflow padding overflow padding overflow padding overflow padding overflow padding overflow padding overflow padding overflow padding overflow padding overflow padding overflow padding overflow padding overflow padding overflow padding overflow padding overflow padding overflow padding overflow padding overflow padding overflow padding overflow padding overflow padding overflow padding overflow padding overflow padding overflow padding overflow padding overflow padding overflow padding overflow padding overflow padding overflow padding overflow padding overflow padding overflow padding overflow padding overflow padding overflow padding overflow padding overflow padding overflow padding overflow padding overflow padding overflow padding overflow padding overflow padding overflow padding overflow padding overflow padding overflow padding overflow padding overflow padding overflow padding overflow padding overflow padding overflow padding overflow padding overflow padding overflow padding overflow padding overflow padding overflow padding overflow padding overflow padding overflow padding overflow padding overflow padding overflow padding overflow padding overflow padding overflow padding overflow padding overflow padding overflow padding overflow padding overflow padding overflow padding overflow padding overflow padding overflow padding overflow padding overflow padding overflow padding overflow padding overflow padding overflow padding overflow padding overflow padding overflow padding overflow padding overflow padding overflow padding overflow padding overflow padding overflow padding overflow padding overflow padding overflow padding overflow padding overflow padding overflow padding overflow padding overflow padding overflow padding overflow padding overflow padding overflow padding overflow padding overflow padding overflow padding overflow padding overflow padding overflow padding overflow padding overflow padding overflow padding overflow padding overflow padding overflow padding overflow padding overflow padding overflow padding overflow padding overflow padding overflow padding overflow padding overflow padding overflow padding overflow padding overflow padding overflow padding overflow padding overflow padding overflow padding overflow padding overflow padding overflow padding overflow padding overflow padding overflow padding overflow padding overflow padding overflow padding overflow padding overflow padding overflow padding overflow padding overflow padding overflow padding overflow padding overflow padding overflow padding overflow padding overflow padding overflow padding overflow padding overflow padding overflow padding overflow padding overflow padding overflow padding overflow padding overflow padding overflow padding overflow padding overflow padding overflow padding overflow padding overflow padding overflow padding overflow padding overflow padding overflow padding overflow padding overflow padding overflow padding overflow padding overflow padding overflow padding overflow padding overflow padding overflow padding overflow padding overflow padding overflow padding overflow padding overflow padding overflow padding overflow padding overflow padding overflow padding overflow padding overflow padding overflow padding overflow padding overflow padding overflow padding overflow padding overflow padding overflow padding overflow padding overflow padding overflow padding overflow padding overflow padding overflow padding overflow padding overflow padding overflow padding overflow padding overflow padding overflow padding overflow padding overflow padding overflow padding overflow padding overflow padding overflow padding overflow padding overflow padding overflow padding overflow padding overflow padding overflow padding overflow padding overflow padding overflow padding overflow padding overflow padding overflow padding overflow padding overflow padding overflow padding overflow padding overflow padding overflow padding overflow padding overflow padding overflow padding overflow padding overflow padding overflow padding overflow padding overflow padding overflow padding overflow padding overflow padding overflow padding overflow padding overflow padding overflow padding overflow padding overflow padding overflow padding overflow padding overflow padding overflow padding overflow padding overflow padding overflow padding overflow padding overflow padding overflow padding overflow padding overflow padding overflow padding overflow padding overflow padding overflow padding overflow padding overflow padding overflow padding overflow padding overflow padding overflow padding overflow padding overflow padding overflow padding overflow padding overflow padding overflow padding overflow padding overflow padding overflow padding overflow padding overflow padding overflow padding overflow padding overflow padding overflow padding overflow padding overflow padding overflow padding overflow padding overflow padding overflow padding overflow padding overflow padding overflow padding overflow padding overflow padding overflow padding overflow padding overflow padding overflow padding overflow padding overflow padding overflow padding overflow padding overflow padding overflow padding overflow padding overflow padding overflow padding overflow padding overflow padding overflow padding overflow padding overflow padding overflow padding "},"geometry":{"type":"Polygon","coordinates":[[[-74.12884,41.0501487],[-74.1269603,41.0497793],[-74.1295487,41.0492339],[-74.1253333,41.0496993],[-74.1265531,41.0494699],[-74.1283884,41.0489837],[-74.1292501,41.0486729],[-74.1299181,41.0483789],[-74.1275676,41.0488424],[-74.1279707,41.0472722],[-74.1248127,41.0483803],[-74.1229243,41.0491632],[-74.1244316,41.0483059],[-74.1294413,41.0455884],[-74.1285491,41.0448128],[-74.1247777,41.047334],[-74.128808,41.0441192],[-74.1299953,41.0430253],[-74.1249548,41.0469478],[-74.1274132,41.0449523],[-74.127524,41.0444648],[-74.1264756,41.0446391],[-74.1249633,41.0458593],[-74.1286029,41.0418143],[-74.1274592,41.043023],[-74.1282823,41.0420438],[-74.1250301,41.0455383],[-74.128755,41.041347],[-74.1260659,41.0440875],[-74.1255908,41.0445369],[-74.1271149,41.0423558],[-74.126639,41.0423419],[-74.1258247,41.0432461],[-74.1273803,41.0402849],[-74.1221524,41.0479796],[-74.1231473,41.0452951],[-74.1234067,41.0444608],[-74.1235233,41.043017],[-74.1231989,41.0410515],[-74.1227167,41.0424568],[-74.1228887,41.0405796],[-74.1211975,41.0436622],[-74.1209363,41.0459953],[-74.1195299,41.0403741],[-74.1206802,41.0496767],[-74.1191366,41.0405408],[-74.1194349,41.0429321],[-74.1190451,41.0412558],[-74.1177186,41.042971],[-74.1169813,41.0414487],[-74.116476,41.0410799],[-74.1192824,41.0473138],[-74.1182175,41.0452549],[-74.115504,41.0434001],[-74.1184579,41.0479336],[-74.1132,41.0427427],[-74.1134229,41.0432288],[-74.1104749,41.0409317],[-74.1154111,41.0457588],[-74.1134769,41.0442208],[-74.1172217,41.047448],[-74.1103965,41.0423613],[-74.1108454,41.0430184],[-74.1135615,41.0456919],[-74.1128306,41.0457922],[-74.1111564,41.0451918],[-74.1124904,41.046275],[-74.1184021,41.0491241],[-74.116392,41.0485518],[-74.1109,41.0472927],[-74.1105669,41.0479168],[-74.1117502,41.048865],[-74.1108697,41.0489446],[-74.1149972,41.0495607],[-74.1131913,41.0495895],[-74.1177494,41.0501111],[-74.1145548,41.0501543],[-74.1154961,41.0511295],[-74.1147086,41.0514605],[-74.1105822,41.0529935],[-74.1103939,41.0531454],[-74.1160941,41.0518874],[-74.110938,41.0538099],[-74.1127335,41.0539239],[-74.119967,41.0506365],[-74.1141124,41.0539799],[-74.1118045,41.0556461],[-74.1120093,41.0555994],[-74.1136333,41.0547975],[-74.111903,41.05613],[-74.1125097,41.0559575],[-74.1129474,41.0561216],[-74.1136144,41.0572797],[-74.1112596,41.0597608],[-74.1132006,41.0588936],[-74.1143213,41.0579405],[-74.1130213,41.0598621],[-74.1137698,41.0596985],[-74.1169404,41.0559929],[-74.1160156,41.0575307],[-74.1196902,41.0523519],[-74.1175187,41.0580062],[-74.1187654,41.0551999],[-74.1170574,41.0598619],[-74.1174513,41.0589542],[-74.1188912,41.0556854],[-74.118333,41.0580859],[-74.1197568,41.0538546],[-74.1193482,41.0555811],[-74.1190112,41.0576677],[-74.1188097,41.0588653],[-74.1194961,41.0575027],[-74.1194684,41.0586725],[-74.1194378,41.05957],[-74.120518,41.053283],[-74.1204393,41.05883],[-74.1213238,41.0574349],[-74.1215874,41.0583544],[-74.1215096,41.056537],[-74.1219723,41.0589359],[-74.1216375,41.0551428],[-74.122181,41.0574284],[-74.1228246,41.0576839],[-74.1233497,41.0560165],[-74.1209531,41.0506657],[-74.1222842,41.0533731],[-74.1238304,41.0563225],[-74.1273785,41.0582003],[-74.1295381,41.0590197],[-74.1270765,41.0565302],[-74.1264296,41.0557827],[-74.1248165,41.0538504],[-74.1266592,41.0554388],[-74.12949,41.0574866],[-74.1288209,41.0553647],[-74.1299214,41.0559834],[-74.1226149,41.0513268],[-74.1237171,41.0517112],[-74.1287866,41.0540298],[-74.1285376,41.0533894],[-74.1283044,41.0532117],[-74.1292159,41.0533643],[-74.1279293,41.0526858],[-74.1251892,41.0517287],[-74.1229918,41.0509732],[-74.1251181,41.0514885],[-74.1263855,41.051632],[-74.1278778,41.0512059],[-74.1234804,41.050367],[-74.1254652,41.0503528],[-74.12884,41.0501487]]]}}
]
}
