{
 "type": "FeatureCollection",
 "features": [
  {
   "type": "Feature",
   "properties": {
    "ZONE": "AA",
    "ZONENAME": "One Family Residential",
    "ORDINANCE": "223-35"
   },
   "geometry": {
    "type": "Polygon",
    "coordinates": [
     [
      [
       -74.132,
       41.041
      ],
      [
       -74.126,
       41.041
      ],
      [
       -74.126,
       41.046
      ],
      [
       -74.132,
       41.046
      ],
      [
       -74.132,
       41.041
      ]
     ],
     [
      [
       -74.13,
       41.042
      ],
      [
       -74.128,
       41.042
      ],
      [
       -74.128,
       41.044
      ],
      [
       -74.13,
       41.044
      ],
      [
       -74.13,
       41.042
      ]
     ]
    ]
   }
  },
  {
   "type": "Feature",
   "properties": {
    "ZONE": "ML-7",
    "ZONENAME": "Light Manufacturing",
    "ORDINANCE": "223-40"
   },
   "geometry": {
    "type": "Polygon",
    "coordinates": [
     [
      [
       -74.126,
       41.041
      ],
      [
       -74.12,
       41.041
      ],
      [
       -74.12,
       41.046
      ],
      [
       -74.126,
       41.046
      ],
      [
       -74.126,
       41.041
      ]
     ]
    ]
   }
  },
  {
   "type": "Feature",
   "properties": {
    "ZONE": "AAA",
    "ZONENAME": "Large Lot Residential",
    "ORDINANCE": "223-31"
   },
   "geometry": {
    "type": "MultiPolygon",
    "coordinates": [
     [
      [
       [
        -74.14,
        41.03
       ],
       [
        -74.136,
        41.03
       ],
       [
        -74.136,
        41.034
       ],
       [
        -74.14,
        41.034
       ],
       [
        -74.14,
        41.03
       ]
      ]
     ],
     [
      [
       [
        -74.134,
        41.03
       ],
       [
        -74.131,
        41.03
       ],
       [
        -74.131,
        41.033
       ],
       [
        -74.134,
        41.033
       ],
       [
        -74.134,
        41.03
       ]
      ]
     ]
    ]
   }
  }
 ],
 "name": "zoning_districts"
}